{"type": "FeatureCollection", "features": [ {"type": "Feature", "properties": {"norad_id": 39634, "name": "SENTINEL-1A", "group": "resource", "lat": 20.125237022470404, "lon": -3.4926093610197255, "alt_km": 695.4041634200221, "timestamp": "2025-12-20T09:36:01.288672+00:00", "meta": {"OBJECT_NAME": "SENTINEL-1A", "OBJECT_ID": "2014-016A", "EPOCH": "2025-12-20T04:34:13.065600", "MEAN_MOTION": 14.59202165, "ECCENTRICITY": 0.0001277, "INCLINATION": 98.1795, "RA_OF_ASC_NODE": 359.3222, "ARG_OF_PERICENTER": 85.5643, "MEAN_ANOMALY": 274.5702, "EPHEMERIS_TYPE": 0, "CLASSIFICATION_TYPE": "U", "NORAD_CAT_ID": 39634, "ELEMENT_SET_NO": 999, "REV_AT_EPOCH": 62391, "BSTAR": 3.7444e-05, "MEAN_MOTION_DOT": 1.31e-06, "MEAN_MOTION_DDOT": 0}, "tle": {"line1": "1 39634U 14016A   25354.19042900  .00000131  00000+0  37444-4 0  9991", "line2": "2 39634  98.1795 359.3222 0001277  85.5643 274.5702 14.59202165623913"}}, "geometry": {"type": "Point", "coordinates": [-3.4926093610197255, 20.125237022470404]}}, {"type": "Feature", "properties": {"norad_id": 39731, "name": "KAZEOSAT 1", "group": "resource", "lat": -62.061870368819534, "lon": -129.92868580840877, "alt_km": 759.5258623389072, "timestamp": "2025-12-20T09:36:01.288682+00:00", "meta": {"OBJECT_NAME": "KAZEOSAT 1", "OBJECT_ID": "2014-024A", "EPOCH": "2025-12-20T03:28:49.351296", "MEAN_MOTION": 14.42066327, "ECCENTRICITY": 0.0001169, "INCLINATION": 98.3433, "RA_OF_ASC_NODE": 65.8866, "ARG_OF_PERICENTER": 98.702, "MEAN_ANOMALY": 261.4302, "EPHEMERIS_TYPE": 0, "CLASSIFICATION_TYPE": "U", "NORAD_CAT_ID": 39731, "ELEMENT_SET_NO": 999, "REV_AT_EPOCH": 61275, "BSTAR": 4.6486e-05, "MEAN_MOTION_DOT": 1.1e-06, "MEAN_MOTION_DDOT": 0}, "tle": {"line1": "1 39731U 14024A   25354.14501564  .00000110  00000+0  46486-4 0  9992", "line2": "2 39731  98.3433  65.8866 0001169  98.7020 261.4302 14.42066327612751"}}, "geometry": {"type": "Point", "coordinates": [-129.92868580840877, -62.061870368819534]}}, {"type": "Feature", "properties": {"norad_id": 39766, "name": "ALOS-2", "group": "resource", "lat": 74.83600393845497, "lon": 58.21612386506798, "alt_km": 622.9489500625323, "timestamp": "2025-12-20T09:36:01.288691+00:00", "meta": {"OBJECT_NAME": "ALOS-2", "OBJECT_ID": "2014-029A", "EPOCH": "2025-12-20T04:23:02.210208", "MEAN_MOTION": 14.7947109, "ECCENTRICITY": 0.0001414, "INCLINATION": 97.9231, "RA_OF_ASC_NODE": 88.9232, "ARG_OF_PERICENTER": 99.7868, "MEAN_ANOMALY": 260.3503, "EPHEMERIS_TYPE": 0, "CLASSIFICATION_TYPE": "U", "NORAD_CAT_ID": 39766, "ELEMENT_SET_NO": 999, "REV_AT_EPOCH": 62511, "BSTAR": 0.0002959, "MEAN_MOTION_DOT": 2.159e-05, "MEAN_MOTION_DDOT": 0}, "tle": {"line1": "1 39766U 14029A   25354.18266447  .00002159  00000+0  29590-3 0  9998", "line2": "2 39766  97.9231  88.9232 0001414  99.7868 260.3503 14.79471090625119"}}, "geometry": {"type": "Point", "coordinates": [58.21612386506798, 74.83600393845497]}}, {"type": "Feature", "properties": {"norad_id": 40010, "name": "KAZEOSAT 2", "group": "resource", "lat": 35.50626028987756, "lon": 23.748161904859753, "alt_km": 605.984271284322, "timestamp": "2025-12-20T09:36:01.288702+00:00", "meta": {"OBJECT_NAME": "KAZEOSAT 2", "OBJECT_ID": "2014-033A", "EPOCH": "2025-12-20T04:06:09.984096", "MEAN_MOTION": 14.85177262, "ECCENTRICITY": 0.0008252, "INCLINATION": 97.5499, "RA_OF_ASC_NODE": 198.1013, "ARG_OF_PERICENTER": 180.656, "MEAN_ANOMALY": 179.4647, "EPHEMERIS_TYPE": 0, "CLASSIFICATION_TYPE": "U", "NORAD_CAT_ID": 40010, "ELEMENT_SET_NO": 999, "REV_AT_EPOCH": 62238, "BSTAR": 5.3022e-06, "MEAN_MOTION_DOT": -5e-08, "MEAN_MOTION_DDOT": 0}, "tle": {"line1": "1 40010U 14033A   25354.17094889 -.00000005  00000+0  53022-5 0  9993", "line2": "2 40010  97.5499 198.1013 0008252 180.6560 179.4647 14.85177262622388"}}, "geometry": {"type": "Point", "coordinates": [23.748161904859753, 35.50626028987756]}}, {"type": "Feature", "properties": {"norad_id": 40011, "name": "HODOYOSHI-4", "group": "resource", "lat": -63.0455497180945, "lon": -161.99598574641115, "alt_km": 621.4780640003137, "timestamp": "2025-12-20T09:36:01.288712+00:00", "meta": {"OBJECT_NAME": "HODOYOSHI-4", "OBJECT_ID": "2014-033B", "EPOCH": "2025-12-20T03:25:52.501728", "MEAN_MOTION": 14.87505328, "ECCENTRICITY": 0.0023765, "INCLINATION": 97.5405, "RA_OF_ASC_NODE": 182.6611, "ARG_OF_PERICENTER": 175.8083, "MEAN_ANOMALY": 184.3338, "EPHEMERIS_TYPE": 0, "CLASSIFICATION_TYPE": "U", "NORAD_CAT_ID": 40011, "ELEMENT_SET_NO": 999, "REV_AT_EPOCH": 62218, "BSTAR": 0.00014335, "MEAN_MOTION_DOT": 1.254e-05, "MEAN_MOTION_DDOT": 0}, "tle": {"line1": "1 40011U 14033B   25354.14296877  .00001254  00000+0  14335-3 0  9990", "line2": "2 40011  97.5405 182.6611 0023765 175.8083 184.3338 14.87505328622180"}}, "geometry": {"type": "Point", "coordinates": [-161.99598574641115, -63.0455497180945]}}, {"type": "Feature", "properties": {"norad_id": 40013, "name": "DEIMOS-2", "group": "resource", "lat": -63.36627747640685, "lon": 34.49214448337987, "alt_km": 596.5627016998505, "timestamp": "2025-12-20T09:36:01.288722+00:00", "meta": {"OBJECT_NAME": "DEIMOS-2", "OBJECT_ID": "2014-033D", "EPOCH": "2025-12-20T05:17:32.298144", "MEAN_MOTION": 14.93006368, "ECCENTRICITY": 0.0001463, "INCLINATION": 97.6068, "RA_OF_ASC_NODE": 229.7736, "ARG_OF_PERICENTER": 104.9286, "MEAN_ANOMALY": 255.2096, "EPHEMERIS_TYPE": 0, "CLASSIFICATION_TYPE": "U", "NORAD_CAT_ID": 40013, "ELEMENT_SET_NO": 999, "REV_AT_EPOCH": 61101, "BSTAR": 0.00023613, "MEAN_MOTION_DOT": 2.4e-05, "MEAN_MOTION_DDOT": 0}, "tle": {"line1": "1 40013U 14033D   25354.22051271  .00002400  00000+0  23613-3 0  9991", "line2": "2 40013  97.6068 229.7736 0001463 104.9286 255.2096 14.93006368611014"}}, "geometry": {"type": "Point", "coordinates": [34.49214448337987, -63.36627747640685]}}, {"type": "Feature", "properties": {"norad_id": 40015, "name": "HODOYOSHI-3", "group": "resource", "lat": 32.39756159182705, "lon": -15.22458423605103, "alt_km": 606.2372313906426, "timestamp": "2025-12-20T09:36:01.288732+00:00", "meta": {"OBJECT_NAME": "HODOYOSHI-3", "OBJECT_ID": "2014-033F", "EPOCH": "2025-12-20T00:51:00.822816", "MEAN_MOTION": 14.84829339, "ECCENTRICITY": 0.0032209, "INCLINATION": 97.6204, "RA_OF_ASC_NODE": 159.5533, "ARG_OF_PERICENTER": 223.0921, "MEAN_ANOMALY": 136.7773, "EPHEMERIS_TYPE": 0, "CLASSIFICATION_TYPE": "U", "NORAD_CAT_ID": 40015, "ELEMENT_SET_NO": 999, "REV_AT_EPOCH": 62103, "BSTAR": 0.00013893, "MEAN_MOTION_DOT": 1.138e-05, "MEAN_MOTION_DDOT": 0}, "tle": {"line1": "1 40015U 14033F   25354.03542619  .00001138  00000+0  13893-3 0  9999", "line2": "2 40015  97.6204 159.5533 0032209 223.0921 136.7773 14.84829339621033"}}, "geometry": {"type": "Point", "coordinates": [-15.22458423605103, 32.39756159182705]}}, {"type": "Feature", "properties": {"norad_id": 40053, "name": "SPOT 7", "group": "resource", "lat": -70.87614245234062, "lon": 80.51836291076867, "alt_km": 699.092854771874, "timestamp": "2025-12-20T09:36:01.288743+00:00", "meta": {"OBJECT_NAME": "SPOT 7", "OBJECT_ID": "2014-034A", "EPOCH": "2025-12-20T03:21:23.299200", "MEAN_MOTION": 14.60742558, "ECCENTRICITY": 0.000156, "INCLINATION": 98.0904, "RA_OF_ASC_NODE": 56.0453, "ARG_OF_PERICENTER": 87.4794, "MEAN_ANOMALY": 272.6585, "EPHEMERIS_TYPE": 0, "CLASSIFICATION_TYPE": "U", "NORAD_CAT_ID": 40053, "ELEMENT_SET_NO": 999, "REV_AT_EPOCH": 61099, "BSTAR": 8.3419e-05, "MEAN_MOTION_DOT": 3.61e-06, "MEAN_MOTION_DDOT": 0}, "tle": {"line1": "1 40053U 14034A   25354.13985300  .00000361  00000+0  83419-4 0  9990", "line2": "2 40053  98.0904  56.0453 0001560  87.4794 272.6585 14.60742558610990"}}, "geometry": {"type": "Point", "coordinates": [80.51836291076867, -70.87614245234062]}}, {"type": "Feature", "properties": {"norad_id": 40072, "name": "SKYSAT-B", "group": "resource", "lat": -54.461197208612845, "lon": 106.62758877483695, "alt_km": 614.567720075851, "timestamp": "2025-12-20T09:36:01.288753+00:00", "meta": {"OBJECT_NAME": "SKYSAT-B", "OBJECT_ID": "2014-037D", "EPOCH": "2025-12-19T19:37:46.870176", "MEAN_MOTION": 14.87350414, "ECCENTRICITY": 0.0006578, "INCLINATION": 98.3621, "RA_OF_ASC_NODE": 297.898, "ARG_OF_PERICENTER": 130.2703, "MEAN_ANOMALY": 229.9088, "EPHEMERIS_TYPE": 0, "CLASSIFICATION_TYPE": "U", "NORAD_CAT_ID": 40072, "ELEMENT_SET_NO": 999, "REV_AT_EPOCH": 61929, "BSTAR": 0.00013824731, "MEAN_MOTION_DOT": 1.188e-05, "MEAN_MOTION_DDOT": 0}, "tle": {"line1": "1 40072U 14037D   25353.81790359  .00001188  00000+0  13825-3 0  9997", "line2": "2 40072  98.3621 297.8980 0006578 130.2703 229.9088 14.87350414619291"}}, "geometry": {"type": "Point", "coordinates": [106.62758877483695, -54.461197208612845]}}, {"type": "Feature", "properties": {"norad_id": 40115, "name": "WORLDVIEW-3 (WV-3)", "group": "resource", "lat": 66.37912600576296, "lon": 48.12925770764795, "alt_km": 607.7223776392384, "timestamp": "2025-12-20T09:36:01.288763+00:00", "meta": {"OBJECT_NAME": "WORLDVIEW-3 (WV-3)", "OBJECT_ID": "2014-048A", "EPOCH": "2025-12-20T04:26:38.864256", "MEAN_MOTION": 14.8466331, "ECCENTRICITY": 0.0001781, "INCLINATION": 97.8771, "RA_OF_ASC_NODE": 66.3732, "ARG_OF_PERICENTER": 137.0431, "MEAN_ANOMALY": 223.0922, "EPHEMERIS_TYPE": 0, "CLASSIFICATION_TYPE": "U", "NORAD_CAT_ID": 40115, "ELEMENT_SET_NO": 999, "REV_AT_EPOCH": 61534, "BSTAR": 9.4225e-05, "MEAN_MOTION_DOT": 7.44e-06, "MEAN_MOTION_DDOT": 0}, "tle": {"line1": "1 40115U 14048A   25354.18517204  .00000744  00000+0  94225-4 0  9995", "line2": "2 40115  97.8771  66.3732 0001781 137.0431 223.0922 14.84663310615340"}}, "geometry": {"type": "Point", "coordinates": [48.12925770764795, 66.37912600576296]}}]}